GLOBALSTAR M068         
1 32266U 07048D   24118.93325840 -.00000056  00000+0  26719-3 0  9997
2 32266  51.9861 128.0497 0000822 310.9831 127.4042 12.62786625765091
GLOBALSTAR M079         
1 37188U 10054A   24119.56006314 -.00000084  00000+0  11298-3 0  9995
2 37188  52.0047 321.9783 0001057  98.4382 279.9487 12.62269036624776
GLOBALSTAR M074         
1 37189U 10054B   24118.98156111 -.00000078  00000+0  14214-3 0  9996
2 37189  52.0028 323.1271 0000784  94.1138  53.5107 12.62267826624624
GLOBALSTAR M076         
1 37190U 10054C   24119.32974757 -.00000060  00000+0  24271-3 0  9996
2 37190  52.0039 322.1988 0001019 124.6063  47.1699 12.62277667624742
GLOBALSTAR M077         
1 37191U 10054D   24118.83621253 -.00000077  00000+0  14893-3 0  9999
2 37191  52.0069 280.4386 0000702 115.4515  31.3500 12.62272172624698
GLOBALSTAR M075         
1 37192U 10054E   24119.18531175 -.00000074  00000+0  16733-3 0  9994
2 37192  51.9973   5.1266 0000866  80.5795  93.8139 12.62273204623960
GLOBALSTAR M073         
1 37193U 10054F   24118.75394924 -.00000087  00000+0  93765-4 0  9991
2 37193  52.0058 279.9424 0000829 116.4198 256.5984 12.62264400625370
GLOBALSTAR M083         
1 37739U 11033A   24118.72136927 -.00000052  00000+0  29151-3 0  9998
2 37739  51.9855 229.3392 0000581  98.8470  66.8634 12.62269493594380
GLOBALSTAR M088         
1 37740U 11033B   24119.48636041 -.00000102  00000+0  97342-5 0  9991
2 37740  51.9709 132.8491 0000402  68.6564  95.5144 12.62267679590317
GLOBALSTAR M091         
1 37741U 11033C   24119.22894303 -.00000105  00000+0 -93329-5 0  9996
2 37741  51.9985  96.4445 0000666  51.5339 321.9398 12.62261991591040
GLOBALSTAR M085         
1 37742U 11033D   24119.24907744 -.00000082  00000+0  12277-3 0  9997
2 37742  51.9886  47.7890 0000860  61.8897 103.1831 12.62270062591785
GLOBALSTAR M081         
1 37743U 11033E   24118.56407966 -.00000087  00000+0  91257-4 0  9994
2 37743  51.9972  52.4052 0000879  73.0550  97.6255 12.62271138591351
GLOBALSTAR M089         
1 37744U 11033F   24118.90057734 -.00000066  00000+0  20849-3 0  9992
2 37744  51.9956   5.6908 0000719 109.3170 330.1206 12.62262741592248
GLOBALSTAR M084         
1 38040U 11080A   24119.09194097 -.00000059  00000+0  25254-3 0  9996
2 38040  52.0004 232.1727 0000645 150.2811  20.9190 12.62274083570520
GLOBALSTAR M080         
1 38041U 11080B   24119.52101852 -.00000068  00000+0  20198-3 0  9994
2 38041  52.0059 232.3296 0000866 151.9802 288.7204 12.62271875570567
GLOBALSTAR M082         
1 38042U 11080C   24119.20750465 -.00000061  00000+0  23957-3 0  9999
2 38042  52.0063 188.6878 0000469  39.0271 356.0089 12.62268902571262
GLOBALSTAR M092         
1 38043U 11080D   24119.21110605 -.00000054  00000+0  27690-3 0  9997
2 38043  52.0082 279.0287 0000529 119.5440  53.0741 12.62279483569758
GLOBALSTAR M090         
1 38044U 11080E   24119.46640159 -.00000060  00000+0  24293-3 0  9990
2 38044  51.9873 182.2413 0000365  74.4178 298.6992 12.62262593571286
GLOBALSTAR M086         
1 38045U 11080F   24118.89426126 -.00000068  00000+0  19748-3 0  9990
2 38045  51.9884 184.5023 0001284 121.3760  50.3845 12.62270262571115
GLOBALSTAR M097         
1 39072U 13005A   24119.19993905 -.00000117  00000+0 -71791-4 0  9991
2 39072  52.0033  97.6956 0000625  66.1554 293.9378 12.62262595518485
GLOBALSTAR M093         
1 39073U 13005B   24118.85656702 -.00000102  00000+0  11157-4 0  9998
2 39073  51.9802  92.7070 0000742  61.8396 298.2545 12.62263594518313
GLOBALSTAR M094         
1 39074U 13005C   24119.41089725 -.00000070  00000+0  18756-3 0  9992
2 39074  51.9985   4.9882 0001004  79.1987 280.8993 12.62265041520015
GLOBALSTAR M096         
1 39075U 13005D   24119.50318581 -.00000087  00000+0  92826-4 0  9997
2 39075  52.0089  52.8949 0000919  63.1087 296.9874 12.62264749519273
GLOBALSTAR M078         
1 39076U 13005E   24119.47736563 -.00000104  00000+0 -35852-5 0  9996
2 39076  51.9844 138.0539 0000947 359.1487   0.9377 12.62268446517756
GLOBALSTAR M095         
1 39077U 13005F   24118.79028728 -.00000100  00000+0  21239-4 0  9996
2 39077  51.9776 137.5437 0000767  32.7775 327.3139 12.62265810517312
GLOBALSTAR M087         
1 52888U 22064A   24119.41808292 -.00000061  00000+0  12765-3 0  9997
2 52888  51.9781  21.9223 0008742 236.7164 123.2899 13.37571551 90868
